STARLINK-36341          
1 67918U 26036Q   26078.83335647  .00084878  00000+0  14397-2 0  9990
2 67918  43.0011 189.5273 0001558 274.5610 160.2992 15.50524816  5271
STARLINK-36663          
1 67919U 26036R   26078.83335647  .00083660  00000+0  14186-2 0  9995
2 67919  43.0007 188.5503 0002007 289.3558 181.2341 15.50539415  5279
STARLINK-36375          
1 67920U 26036S   26078.83335647 -.01922499  00000+0 -37521-1 0  9999
2 67920  43.0007 188.9199 0001853 272.4054  48.1853 15.49817463  5277
STARLINK-36405          
1 67921U 26036T   26078.83335647  .00077453  00000+0  13155-2 0  9996
2 67921  43.0009 189.4918 0002078 274.0975 175.0124 15.50525540  5270
STARLINK-36383          
1 67922U 26036U   26078.61028267  .00355377  00000+0  16170-2 0  9994
2 67922  43.0003 188.8169 0001783 301.1331  58.9365 15.82080790  5247
STARLINK-36406          
1 67923U 26036V   26078.70866509  .00076862  00000+0  13009-2 0  9991
2 67923  42.9996 190.4955 0002822 273.5571  86.4967 15.50624370  5238
STARLINK-36714          
1 67924U 26036W   26078.83335647  .00077357  00000+0  13140-2 0  9996
2 67924  43.0006 188.8360 0001665 291.4228  62.8691 15.50524107  5279
STARLINK-36726          
1 67925U 26036X   26078.83335647  .00074346  00000+0  12635-2 0  9990
2 67925  43.0010 189.4633 0001595 272.7265 187.2134 15.50524687  5277
STARLINK-36758          
1 67926U 26036Y   26078.83335647  .00072555  00000+0  12334-2 0  9997
2 67926  43.0005 188.9848 0001718 285.2948   8.3750 15.50527282  5279
STARLINK-36728          
1 67927U 26036Z   26078.83335647  .00087563  00000+0  14827-2 0  9992
2 67927  43.0005 188.7348 0001915 310.2148  84.7072 15.50559623  5272
STARLINK-36771          
1 67928U 26036AA  26078.83335647  .00072823  00000+0  12379-2 0  9996
2 67928  43.0007 188.8627 0001572 275.6213  67.5674 15.50526628  5278
STARLINK-36809          
1 67929U 26036AB  26078.83335647 -.00020285  00000+0 -34043-3 0  9997
2 67929  43.0007 188.8397 0001641 264.7220  87.5740 15.50611586  5271
STARLINK-36865          
1 67930U 26036AC  26078.83335647  .00091413  00000+0  15491-2 0  9993
2 67930  43.0005 188.5096 0001784 284.0735 201.5184 15.50520910  5278
STARLINK-36781          
1 67931U 26036AD  26078.83335647  .00111813  00000+0  18875-2 0  9990
2 67931  43.0005 188.5602 0001666 292.5296 172.6730 15.50535411  5274
STARLINK-36301          
1 67932U 26037A   26078.83335647 -.01991682  00000+0 -15324-1 0  9990
2 67932  42.9992 136.4824 0001388 282.9584 202.4669 15.74038381  4744
STARLINK-36852          
1 67933U 26037B   26078.83335647 -.01926274  00000+0 -29586-1 0  9991
2 67933  42.9991 137.0793 0001106 270.0033 335.5869 15.56904450  4829
