[{"OBJECT_NAME":"STARLINK-36341","OBJECT_ID":"2026-036Q","EPOCH":"2026-03-19T20:00:01.999008","MEAN_MOTION":15.50524816,"ECCENTRICITY":0.0001558,"INCLINATION":43.0011,"RA_OF_ASC_NODE":189.5273,"ARG_OF_PERICENTER":274.561,"MEAN_ANOMALY":160.2992,"EPHEMERIS_TYPE":0,"CLASSIFICATION_TYPE":"U","NORAD_CAT_ID":67918,"ELEMENT_SET_NO":999,"REV_AT_EPOCH":527,"BSTAR":0.0014397,"MEAN_MOTION_DOT":0.00084878,"MEAN_MOTION_DDOT":0},{"OBJECT_NAME":"STARLINK-36663","OBJECT_ID":"2026-036R","EPOCH":"2026-03-19T20:00:01.999008","MEAN_MOTION":15.50539415,"ECCENTRICITY":0.0002007,"INCLINATION":43.0007,"RA_OF_ASC_NODE":188.5503,"ARG_OF_PERICENTER":289.3558,"MEAN_ANOMALY":181.2341,"EPHEMERIS_TYPE":0,"CLASSIFICATION_TYPE":"U","NORAD_CAT_ID":67919,"ELEMENT_SET_NO":999,"REV_AT_EPOCH":527,"BSTAR":0.0014186,"MEAN_MOTION_DOT":0.0008366,"MEAN_MOTION_DDOT":0},{"OBJECT_NAME":"STARLINK-36375","OBJECT_ID":"2026-036S","EPOCH":"2026-03-19T20:00:01.999008","MEAN_MOTION":15.49817463,"ECCENTRICITY":0.0001853,"INCLINATION":43.0007,"RA_OF_ASC_NODE":188.9199,"ARG_OF_PERICENTER":272.4054,"MEAN_ANOMALY":48.1853,"EPHEMERIS_TYPE":0,"CLASSIFICATION_TYPE":"U","NORAD_CAT_ID":67920,"ELEMENT_SET_NO":999,"REV_AT_EPOCH":527,"BSTAR":-0.037521,"MEAN_MOTION_DOT":-0.01922499,"MEAN_MOTION_DDOT":0},{"OBJECT_NAME":"STARLINK-36405","OBJECT_ID":"2026-036T","EPOCH":"2026-03-19T20:00:01.999008","MEAN_MOTION":15.5052554,"ECCENTRICITY":0.0002078,"INCLINATION":43.0009,"RA_OF_ASC_NODE":189.4918,"ARG_OF_PERICENTER":274.0975,"MEAN_ANOMALY":175.0124,"EPHEMERIS_TYPE":0,"CLASSIFICATION_TYPE":"U","NORAD_CAT_ID":67921,"ELEMENT_SET_NO":999,"REV_AT_EPOCH":527,"BSTAR":0.0013155,"MEAN_MOTION_DOT":0.00077453,"MEAN_MOTION_DDOT":0},{"OBJECT_NAME":"STARLINK-36383","OBJECT_ID":"2026-036U","EPOCH":"2026-03-19T14:38:48.422688","MEAN_MOTION":15.8208079,"ECCENTRICITY":0.0001783,"INCLINATION":43.0003,"RA_OF_ASC_NODE":188.8169,"ARG_OF_PERICENTER":301.1331,"MEAN_ANOMALY":58.9365,"EPHEMERIS_TYPE":0,"CLASSIFICATION_TYPE":"U","NORAD_CAT_ID":67922,"ELEMENT_SET_NO":999,"REV_AT_EPOCH":524,"BSTAR":0.001617,"MEAN_MOTION_DOT":0.00355377,"MEAN_MOTION_DDOT":0},{"OBJECT_NAME":"STARLINK-36406","OBJECT_ID":"2026-036V","EPOCH":"2026-03-19T17:00:28.663776","MEAN_MOTION":15.5062437,"ECCENTRICITY":0.0002822,"INCLINATION":42.9996,"RA_OF_ASC_NODE":190.4955,"ARG_OF_PERICENTER":273.5571,"MEAN_ANOMALY":86.4967,"EPHEMERIS_TYPE":0,"CLASSIFICATION_TYPE":"U","NORAD_CAT_ID":67923,"ELEMENT_SET_NO":999,"REV_AT_EPOCH":523,"BSTAR":0.0013009,"MEAN_MOTION_DOT":0.00076862,"MEAN_MOTION_DDOT":0},{"OBJECT_NAME":"STARLINK-36714","OBJECT_ID":"2026-036W","EPOCH":"2026-03-19T20:00:01.999008","MEAN_MOTION":15.50524107,"ECCENTRICITY":0.0001665,"INCLINATION":43.0006,"RA_OF_ASC_NODE":188.836,"ARG_OF_PERICENTER":291.4228,"MEAN_ANOMALY":62.8691,"EPHEMERIS_TYPE":0,"CLASSIFICATION_TYPE":"U","NORAD_CAT_ID":67924,"ELEMENT_SET_NO":999,"REV_AT_EPOCH":527,"BSTAR":0.001314,"MEAN_MOTION_DOT":0.00077357,"MEAN_MOTION_DDOT":0},{"OBJECT_NAME":"STARLINK-36726","OBJECT_ID":"2026-036X","EPOCH":"2026-03-19T20:00:01.999008","MEAN_MOTION":15.50524687,"ECCENTRICITY":0.0001595,"INCLINATION":43.001,"RA_OF_ASC_NODE":189.4633,"ARG_OF_PERICENTER":272.7265,"MEAN_ANOMALY":187.2134,"EPHEMERIS_TYPE":0,"CLASSIFICATION_TYPE":"U","NORAD_CAT_ID":67925,"ELEMENT_SET_NO":999,"REV_AT_EPOCH":527,"BSTAR":0.0012635,"MEAN_MOTION_DOT":0.00074346,"MEAN_MOTION_DDOT":0},{"OBJECT_NAME":"STARLINK-36758","OBJECT_ID":"2026-036Y","EPOCH":"2026-03-19T20:00:01.999008","MEAN_MOTION":15.50527282,"ECCENTRICITY":0.0001718,"INCLINATION":43.0005,"RA_OF_ASC_NODE":188.9848,"ARG_OF_PERICENTER":285.2948,"MEAN_ANOMALY":8.375,"EPHEMERIS_TYPE":0,"CLASSIFICATION_TYPE":"U","NORAD_CAT_ID":67926,"ELEMENT_SET_NO":999,"REV_AT_EPOCH":527,"BSTAR":0.0012334,"MEAN_MOTION_DOT":0.00072555,"MEAN_MOTION_DDOT":0},{"OBJECT_NAME":"STARLINK-36728","OBJECT_ID":"2026-036Z","EPOCH":"2026-03-19T20:00:01.999008","MEAN_MOTION":15.50559623,"ECCENTRICITY":0.0001915,"INCLINATION":43.0005,"RA_OF_ASC_NODE":188.7348,"ARG_OF_PERICENTER":310.2148,"MEAN_ANOMALY":84.7072,"EPHEMERIS_TYPE":0,"CLASSIFICATION_TYPE":"U","NORAD_CAT_ID":67927,"ELEMENT_SET_NO":999,"REV_AT_EPOCH":527,"BSTAR":0.0014827,"MEAN_MOTION_DOT":0.00087563,"MEAN_MOTION_DDOT":0},{"OBJECT_NAME":"STARLINK-36771","OBJECT_ID":"2026-036AA","EPOCH":"2026-03-19T20:00:01.999008","MEAN_MOTION":15.50526628,"ECCENTRICITY":0.0001572,"INCLINATION":43.0007,"RA_OF_ASC_NODE":188.8627,"ARG_OF_PERICENTER":275.6213,"MEAN_ANOMALY":67.5674,"EPHEMERIS_TYPE":0,"CLASSIFICATION_TYPE":"U","NORAD_CAT_ID":67928,"ELEMENT_SET_NO":999,"REV_AT_EPOCH":527,"BSTAR":0.0012379,"MEAN_MOTION_DOT":0.00072823,"MEAN_MOTION_DDOT":0},{"OBJECT_NAME":"STARLINK-36809","OBJECT_ID":"2026-036AB","EPOCH":"2026-03-19T20:00:01.999008","MEAN_MOTION":15.50611586,"ECCENTRICITY":0.0001641,"INCLINATION":43.0007,"RA_OF_ASC_NODE":188.8397,"ARG_OF_PERICENTER":264.722,"MEAN_ANOMALY":87.574,"EPHEMERIS_TYPE":0,"CLASSIFICATION_TYPE":"U","NORAD_CAT_ID":67929,"ELEMENT_SET_NO":999,"REV_AT_EPOCH":527,"BSTAR":-0.00034043,"MEAN_MOTION_DOT":-0.00020285,"MEAN_MOTION_DDOT":0},{"OBJECT_NAME":"STARLINK-36865","OBJECT_ID":"2026-036AC","EPOCH":"2026-03-19T20:00:01.999008","MEAN_MOTION":15.5052091,"ECCENTRICITY":0.0001784,"INCLINATION":43.0005,"RA_OF_ASC_NODE":188.5096,"ARG_OF_PERICENTER":284.0735,"MEAN_ANOMALY":201.5184,"EPHEMERIS_TYPE":0,"CLASSIFICATION_TYPE":"U","NORAD_CAT_ID":67930,"ELEMENT_SET_NO":999,"REV_AT_EPOCH":527,"BSTAR":0.0015491,"MEAN_MOTION_DOT":0.00091413,"MEAN_MOTION_DDOT":0},{"OBJECT_NAME":"STARLINK-36781","OBJECT_ID":"2026-036AD","EPOCH":"2026-03-19T20:00:01.999008","MEAN_MOTION":15.50535411,"ECCENTRICITY":0.0001666,"INCLINATION":43.0005,"RA_OF_ASC_NODE":188.5602,"ARG_OF_PERICENTER":292.5296,"MEAN_ANOMALY":172.673,"EPHEMERIS_TYPE":0,"CLASSIFICATION_TYPE":"U","NORAD_CAT_ID":67931,"ELEMENT_SET_NO":999,"REV_AT_EPOCH":527,"BSTAR":0.0018875,"MEAN_MOTION_DOT":0.00111813,"MEAN_MOTION_DDOT":0},{"OBJECT_NAME":"STARLINK-36301","OBJECT_ID":"2026-037A","EPOCH":"2026-03-19T20:00:01.999008","MEAN_MOTION":15.74038381,"ECCENTRICITY":0.0001388,"INCLINATION":42.9992,"RA_OF_ASC_NODE":136.4824,"ARG_OF_PERICENTER":282.9584,"MEAN_ANOMALY":202.4669,"EPHEMERIS_TYPE":0,"CLASSIFICATION_TYPE":"U","NORAD_CAT_ID":67932,"ELEMENT_SET_NO":999,"REV_AT_EPOCH":474,"BSTAR":-0.015324,"MEAN_MOTION_DOT":-0.01991682,"MEAN_MOTION_DDOT":0},{"OBJECT_NAME":"STARLINK-36852","OBJECT_ID":"2026-037B","EPOCH":"2026-03-19T20:00:01.999008","MEAN_MOTION":15.5690445,"ECCENTRICITY":0.0001106,"INCLINATION":42.9991,"RA_OF_ASC_NODE":137.0793,"ARG_OF_PERICENTER":270.0033,"MEAN_ANOMALY":335.5869,"EPHEMERIS_TYPE":0,"CLASSIFICATION_TYPE":"U","NORAD_CAT_ID":67933,"ELEMENT_SET_NO":999,"REV_AT_EPOCH":482,"BSTAR":-0.029586,"MEAN_MOTION_DOT":-0.01926274,"MEAN_MOTION_DDOT":0}]
